STARLINK-35910          
1 67184U 25303X   25351.60835648 -.00002699  85337-5  00000+0 0  9992
2 67184  43.0100  69.0834 0011500 323.6500   9.4800 16.01284782    13
STARLINK-35859          
1 67185U 25303Y   25351.60835648 -.00002699  85337-5  00000+0 0  9993
2 67185  43.0100  69.0834 0011500 323.6500   9.4800 16.01284782    14
STARLINK-35857          
1 67186U 25303Z   25351.60835648 -.00002699  85337-5  00000+0 0  9994
2 67186  43.0100  69.0834 0011500 323.6500   9.4800 16.01284782    15
STARLINK-35880          
1 67187U 25303AA  25351.60835648 -.00002699  85337-5  00000+0 0  9995
2 67187  43.0100  69.0834 0011500 323.6500   9.4800 16.01284782    16
STARLINK-35675          
1 67188U 25303AB  25351.60835648 -.00002699  85337-5  00000+0 0  9996
2 67188  43.0100  69.0834 0011500 323.6500   9.4800 16.01284782    17
STARLINK-35889          
1 67189U 25303AC  25351.60835648 -.00002699  85337-5  00000+0 0  9997
2 67189  43.0100  69.0834 0011500 323.6500   9.4800 16.01284782    18
STARLINK-35888          
1 67190U 25303AD  25351.60835648 -.00002699  85337-5  00000+0 0  9999
2 67190  43.0100  69.0834 0011500 323.6500   9.4800 16.01284782    10
STARLINK-35716          
1 67191U 25303AE  25351.60835648 -.00002699  85337-5  00000+0 0  9990
2 67191  43.0100  69.0834 0011500 323.6500   9.4800 16.01284782    11
STARLINK-36182          
1 67192U 25304A   26001.25002315 -.01992369  00000+0 -19748-1 0  9996
2 67192  69.9995 352.3304 0003321 274.0299 226.1344 15.68687163  3574
STARLINK-36279          
1 67193U 25304B   26001.25002315 -.01983576  00000+0 -19654-1 0  9993
2 67193  69.9995 352.3278 0003276 275.3428 226.7388 15.68681787  3606
STARLINK-36284          
1 67194U 25304C   26001.25002315 -.01979034  00000+0 -19606-1 0  9995
2 67194  69.9997 352.3253 0003258 275.1201 228.8794 15.68678497  3607
STARLINK-36291          
1 67195U 25304D   26001.25002315 -.01979088  00000+0 -19605-1 0  9994
2 67195  69.9999 352.3230 0003418 274.1873 231.7306 15.68677471  3600
